[{"OBJECT_NAME":"KINEIS-3A","OBJECT_ID":"2024-172D","EPOCH":"2026-03-09T19:23:40.391232","MEAN_MOTION":14.72337384,"ECCENTRICITY":0.00029157,"INCLINATION":98.0282,"RA_OF_ASC_NODE":159.903,"ARG_OF_PERICENTER":69.8112,"MEAN_ANOMALY":290.3409,"EPHEMERIS_TYPE":0,"CLASSIFICATION_TYPE":"U","NORAD_CAT_ID":61223,"ELEMENT_SET_NO":999,"REV_AT_EPOCH":7815,"BSTAR":0.00045890962,"MEAN_MOTION_DOT":2.854e-5,"MEAN_MOTION_DDOT":0},{"OBJECT_NAME":"SL-8 DEB","OBJECT_ID":"2002-054D","EPOCH":"2026-03-08T20:34:27.818688","MEAN_MOTION":14.76442249,"ECCENTRICITY":0.0027822,"INCLINATION":98.2769,"RA_OF_ASC_NODE":300.1251,"ARG_OF_PERICENTER":150.9792,"MEAN_ANOMALY":209.2971,"EPHEMERIS_TYPE":0,"CLASSIFICATION_TYPE":"U","NORAD_CAT_ID":27768,"ELEMENT_SET_NO":999,"REV_AT_EPOCH":24051,"BSTAR":0.0006413849,"MEAN_MOTION_DOT":4.436e-5,"MEAN_MOTION_DDOT":0}]
